GLOBALSTAR M001 [-]     
1 25162U 98008A   24108.38410882 -.00000062  00000+0  26493-3 0  9995
2 25162  52.0007 132.5278 0001578  76.5487  27.3219 12.38181644190965
GLOBALSTAR M004 [-]     
1 25163U 98008B   24108.76483272 -.00000041  00000+0  34668-3 0  9991
2 25163  51.9991 271.9762 0003656  74.3280  29.5864 12.63355387208019
GLOBALSTAR M002 [-]     
1 25164U 98008C   24108.61004909 -.00000061  00000+0  30328-3 0  9993
2 25164  52.0004 227.2595 0001845 100.7948 259.3080 11.61500932134687
GLOBALSTAR M003 [-]     
1 25165U 98008D   24108.59339514  .00000013  00000+0  10921-2 0  9996
2 25165  51.9841 267.2666 0008495 153.8585 284.0120 12.11993364181618
GLOBALSTAR M014 [-]     
1 25306U 98023A   24108.48607200 -.00000061  00000+0  30411-3 0  9999
2 25306  51.9814 159.7450 0000722 279.2677 188.8839 11.65466916141532
GLOBALSTAR M006 [-]     
1 25307U 98023B   24108.56564042 -.00000028  00000+0  97925-3 0  9991
2 25307  51.9925 196.1098 0003702  69.9449  33.7141 11.58160726167513
GLOBALSTAR M015 [-]     
1 25308U 98023C   24108.49732719 -.00000085  00000+0 -26526-3 0  9995
2 25308  51.9815 275.2411 0012798  43.0055 349.8645 11.48850214145154
GLOBALSTAR M008 [-]     
1 25309U 98023D   24108.09862654 -.00000086  00000+0  78440-4 0  9997
2 25309  51.9995 353.3640 0002770  12.9799 134.8812 12.36040746185156
